{
"type": "FeatureCollection",
"name": "arrows",
"crs": { "type": "name", "properties": { "name": "urn:ogc:def:crs:OGC:1.3:CRS84" } },
"features": [
{ "type": "Feature", "properties": { "fid": 1, "Name": "02-03 03 22", "No": 9, "type": "arrow", "id": "l40" }, "geometry": { "type": "LineString", "coordinates": [ [ 31.78990093924087, 47.46627164154245 ], [ 31.78640477210134, 47.46676809140294 ] ] } },

{ "type": "Feature", "properties": { "fid": 16, "Name": "26 02 22", "No": 9, "type": "arrow", "id": "l41" }, "geometry": { "type": "LineString", "coordinates": [[32.22542458876462, 46.86897582571081], [32.22041464669401, 46.8708588423449]] } },

{ "type": "Feature", "properties": { "fid": 19, "Name": "1 03 22", "No": 9, "type": "arrow", "id": "l42" }, "geometry": { "type": "LineString", "coordinates": [[32.5301612920773, 46.99163450526875], [32.52773290498812,46.99866817257776]] } },

{ "type": "Feature", "properties": { "fid": 19, "Name": "2 03 22", "No": 9, "type": "arrow", "id": "l43" }, "geometry": { "type": "LineString", "coordinates": [[32.38569135651231, 47.31410290252822], [32.39093063590946, 47.32127078036206]] } },

{ "type": "Feature", "properties": { "fid": 20, "Name": "4 03 22", "No": 9, "type": "arrow", "id": "l44" }, "geometry": { "type": "LineString", "coordinates": [[32.31158366981782, 46.81811636168715], [32.30529237728253, 46.82162059186616]] } },

{ "type": "Feature", "properties": { "fid": 21, "Name": "4 03 22", "No": 9, "type": "arrow", "id": "l45" }, "geometry": { "type": "LineString", "coordinates": [[32.56108588770349, 46.89067252800017], [32.56041675702221, 46.89513571902689]] } }

]
}
