{
"type": "FeatureCollection",
"name": "mykolayvArrow",
"crs": { "type": "name", "properties": { "name": "urn:ogc:def:crs:OGC:1.3:CRS84" } },
"features": [
{ "type": "Feature", "properties": { "fid": 18, "Name": "02-03 03 22", "No": 9, "type": "arrow", "id": "l40" }, "geometry": { "type": "LineString", "coordinates": [ [ 32.48993942476191, 47.29595640790998 ], [ 31.78990093924087, 47.46627164154245 ] ] } },

{ "type": "Feature", "properties": { "fid": 16, "Name": "26 02 22", "No": 9, "type": "arrow", "id": "l41" }, "geometry": { "type": "LineString", "coordinates": [[32.46033658477915, 46.73949409281288], [32.22542458876462, 46.86897582571081]] } },

{ "type": "Feature", "properties": { "fid": 18, "Name": "01 03 22", "No": 9, "type": "arrow", "id": "l42" }, "geometry": { "type": "LineString", "coordinates": [[32.60107856075786, 46.7062581567195], [32.5301612920773, 46.99163450526875]]} },

{ "type": "Feature", "properties": { "fid": 19, "Name": "2 03 22", "No": 9, "type": "arrow", "id": "l43" }, "geometry": { "type": "LineString", "coordinates": [[32.2102287653555, 47.06415616512346], [32.38569135651231, 47.31410290252822]] } },

{ "type": "Feature", "properties": { "fid": 20, "Name": "4 03 22", "No": 9, "type": "arrow", "id": "l44" }, "geometry": { "type": "LineString", "coordinates": [[32.51214896438361, 46.70594850823144], [32.31158366981782, 46.81811636168715]] } },

{ "type": "Feature", "properties": { "fid": 21, "Name": "4 03 22", "No": 9, "type": "arrow", "id": "l45" }, "geometry": { "type": "LineString", "coordinates": [[32.5973199350893, 46.73612402697516], [32.56108588770349, 46.89067252800017]] } }

]
}
