{
"type": "FeatureCollection",
"name": "chernihiv_dot",
"crs": { "type": "name", "properties": { "name": "urn:ogc:def:crs:OGC:1.3:CRS84" } },
"features": [

{ "type": "Feature", "properties": { "fid": 1, "Name": "Військовий аеродром Кульбакине", "No": 1, "id": "d1", "side": "ru" }, "geometry": { "type": "Point", "coordinates": [ 32.0730514, 46.9354839 ] } },

{ "type": "Feature", "properties": { "fid": 2, "Name": "Військовий аеродром Кульбакине", "No": 2, "id": "d1", "side": "ru" }, "geometry": { "type": "Point", "coordinates": [ 32.0650625, 46.9369375 ] } },

{ "type": "Feature", "properties": { "fid": 3, "Name": "ОЧАКІВ", "No": 3, "id": "d3", "side": "ru" }, "geometry": { "type": "Point", "coordinates": [ 31.5611676, 46.6168969 ] } },

{ "type": "Feature", "properties": { "fid": 4, "Name": "Cклад паливно-мастильних матеріалів", "No": 4, "id": "d4", "side": "ru" }, "geometry": { "type": "Point", "coordinates": [ 32.0738463, 46.9505797 ] } },

{ "type": "Feature", "properties": { "fid": 5, "Name": "КОБЛЕВЕ", "No": 5, "id": "d5", "side": "ru" }, "geometry": { "type": "Point", "coordinates": [ 31.2091132, 46.6290342 ] } },

{ "type": "Feature", "properties": { "fid": 6, "Name": "Обстріли Корабельного района Миколаєва", "No": 5, "id": "d6", "side": "ru" }, "geometry": { "type": "Point", "coordinates": [ 32.0234808, 46.8888277 ] } },

{ "type": "Feature", "properties": { "fid": 6, "Name": "Обстріли Центрального района Миколаєва", "No": 5, "id": "d61", "side": "ru" }, "geometry": { "type": "Point", "coordinates": [ 32.008902, 46.963707 ] } },

{ "type": "Feature", "properties": { "fid": 6, "Name": "Обстріли Центрального района Миколаєва", "No": 5, "id": "d62", "side": "ru" }, "geometry": { "type": "Point", "coordinates": [ 31.994654, 46.957381 ] } },

{ "type": "Feature", "properties": { "fid": 7, "Name": "ШЕВЧЕНКОВЕ", "No": 5, "id": "d7", "side": "ru" }, "geometry": { "type": "Point", "coordinates": [ 32.2223197, 46.8564772 ] } },

{ "type": "Feature", "properties": { "fid": 8, "Name": "Тернівське кільце", "No": 5, "id": "d8", "side": "ru" }, "geometry": { "type": "Point", "coordinates": [ 31.99617727116591, 47.01568579182274 ] } },

{ "type": "Feature", "properties": { "fid": 10, "Name": "БАШТАНКА", "No": 5, "id": "d10", "side": "ru" }, "geometry": { "type": "Point", "coordinates": [ 32.43771766973219, 47.40818583583354 ] } },

{ "type": "Feature", "properties": { "fid": 11, "Name": "ЄЛАНЕЦЬ", "No": 5, "id": "d11", "side": "ru" }, "geometry": { "type": "Point", "coordinates": [ 31.856574133387777, 47.70087674661465 ] } },

{ "type": "Feature", "properties": { "fid": 12, "Name": "КАЛИНІВКА", "No": 5, "id": "d12", "side": "ru" }, "geometry": { "type": "Point", "coordinates": [ 32.17744576305082, 47.064029113873445 ] } },

{ "type": "Feature", "properties": { "fid": 14, "Name": "район Баловного", "No": 5, "id": "d14", "side": "ru" }, "geometry": { "type": "Point", "coordinates": [ 31.895037639172028, 47.04771246885397 ] } },

{ "type": "Feature", "properties": { "fid": 15, "Name": "Громадянський аеропорт Миколаєва", "No": 5, "id": "d15", "side": "ru" }, "geometry": { "type": "Point", "coordinates": [ 32.09288868579677, 46.944943279331206 ] } },

{ "type": "Feature", "properties": { "fid": 16, "Name": "ВОЗНЕСЕНСЬК", "No": 5, "id": "d16", "side": "ru" }, "geometry": { "type": "Point", "coordinates": [ 31.359139331080467, 47.54852073106855 ] } },

{ "type": "Feature", "properties": { "fid": 17, "Name": "село Червоне", "No": 5, "id": "d17", "side": "ru" }, "geometry": { "type": "Point", "coordinates": [ 32.38702065508092, 47.05370446923691 ] } },

{ "type": "Feature", "properties": { "fid": 18, "Name": "Бої з росіянами на території Снігурівської громади", "No": 5, "id": "d18", "side": "ru" }, "geometry": { "type": "Point", "coordinates": [ 32.78837356083468, 47.09506554420764 ] } },

{ "type": "Feature", "properties": { "fid": 19, "Name": "ПІСКИ", "No": 5, "id": "d19", "side": "ru" }, "geometry": { "type": "Point", "coordinates": [ 32.25827462501065, 47.35738603290133 ] } },

{ "type": "Feature", "properties": { "fid": 20, "Name": "Росіяни увійшли до Микоалєва", "No": 5, "id": "d20", "side": "ru" }, "geometry": { "type": "Point", "coordinates": [ 32.00163878532696, 46.834736244429735 ] } },

{ "type": "Feature", "properties": { "fid": 21, "Name": "Бій у районі аеродрому Кульбакине", "No": 5, "id": "d21", "side": "ru" }, "geometry": { "type": "Point", "coordinates": [ 32.08886463173665, 46.938929991103706 ] } },

{ "type": "Feature", "properties": { "fid": 22, "Name": "ПРИБУЗЬКЕ", "No": 5, "id": "d22", "side": "ru" }, "geometry": { "type": "Point", "coordinates": [ 32.0881431, 46.7743108 ] } },

{ "type": "Feature", "properties": { "fid": 23, "Name": "підбили Тигр та взяли у полон чотирьох окупантів", "No": 5, "id": "d11", "side": "ru" }, "geometry": { "type": "Point", "coordinates": [ 31.985993512275286, 46.81405692402034 ] } },

{ "type": "Feature", "properties": { "fid": 24, "Name": "Ворог тікав у бік Шевченкового", "No": 5, "id": "d11", "side": "ru" }, "geometry": { "type": "Point", "coordinates": [ 32.201640918770075, 46.846260851264475 ] } },

{ "type": "Feature", "properties": { "fid": 11, "Name": "Єланецький напрямок", "No": 5, "id": "d11", "side": "ru" }, "geometry": { "type": "Point", "coordinates": [ 31.856574133387777, 47.70087674661465 ] } },

{ "type": "Feature", "properties": { "fid": 11, "Name": "Єланецький напрямок", "No": 5, "id": "d11", "side": "ru" }, "geometry": { "type": "Point", "coordinates": [ 31.856574133387777, 47.70087674661465 ] } },

{ "type": "Feature", "properties": { "fid": 11, "Name": "Єланецький напрямок", "No": 5, "id": "d11", "side": "ru" }, "geometry": { "type": "Point", "coordinates": [ 31.856574133387777, 47.70087674661465 ] } },

{ "type": "Feature", "properties": { "fid": 11, "Name": "Єланецький напрямок", "No": 5, "id": "d11", "side": "ru" }, "geometry": { "type": "Point", "coordinates": [ 31.856574133387777, 47.70087674661465 ] } },

{ "type": "Feature", "properties": { "fid": 11, "Name": "Єланецький напрямок", "No": 5, "id": "d11", "side": "ru" }, "geometry": { "type": "Point", "coordinates": [ 31.856574133387777, 47.70087674661465 ] } },

{ "type": "Feature", "properties": { "fid": 11, "Name": "Єланецький напрямок", "No": 5, "id": "d11", "side": "ru" }, "geometry": { "type": "Point", "coordinates": [ 31.856574133387777, 47.70087674661465 ] } },

{ "type": "Feature", "properties": { "fid": 11, "Name": "Єланецький напрямок", "No": 5, "id": "d11", "side": "ru" }, "geometry": { "type": "Point", "coordinates": [ 31.856574133387777, 47.70087674661465 ] } },

{ "type": "Feature", "properties": { "fid": 11, "Name": "Єланецький напрямок", "No": 5, "id": "d11", "side": "ru" }, "geometry": { "type": "Point", "coordinates": [ 31.856574133387777, 47.70087674661465 ] } },

{ "type": "Feature", "properties": { "fid": 11, "Name": "Єланецький напрямок", "No": 5, "id": "d11", "side": "ru" }, "geometry": { "type": "Point", "coordinates": [ 31.856574133387777, 47.70087674661465 ] } },

{ "type": "Feature", "properties": { "fid": 41, "Name": "Позиції українських бійців біля заправки “Укрнафта”", "description": null, "No": null, "id": "d41", "side": "ua" }, "geometry": { "type": "Point", "coordinates": [ 31.3878715459856, 51.535847881303141 ] } }
]
}
