<?xml version="1.0" encoding="UTF-8"?>
<kml xmlns="http://www.opengis.net/kml/2.2" xmlns:gx="http://www.google.com/kml/ext/2.2" xmlns:kml="http://www.opengis.net/kml/2.2" xmlns:atom="http://www.w3.org/2005/Atom">
<Document>
	<name>2022-03-05-07</name>
	<StyleMap id="poly-000000-1200-77-nodesc">
		<Pair>
			<key>normal</key>
			<styleUrl>#poly-000000-1200-77-nodesc-normal</styleUrl>
		</Pair>
		<Pair>
			<key>highlight</key>
			<styleUrl>#poly-000000-1200-77-nodesc-highlight</styleUrl>
		</Pair>
	</StyleMap>
	<Style id="poly-000000-1200-77-nodesc-highlight">
		<BalloonStyle>
			<text><![CDATA[<h3>$[name]</h3>]]></text>
		</BalloonStyle>
		<LineStyle>
			<color>ff000000</color>
			<width>1.8</width>
		</LineStyle>
		<PolyStyle>
			<color>4d000000</color>
		</PolyStyle>
	</Style>
	<Style id="poly-000000-1200-77-nodesc-normal">
		<BalloonStyle>
			<text><![CDATA[<h3>$[name]</h3>]]></text>
		</BalloonStyle>
		<LineStyle>
			<color>ff000000</color>
			<width>1.2</width>
		</LineStyle>
		<PolyStyle>
			<color>4d000000</color>
		</PolyStyle>
	</Style>
	<Folder>
		<name>2022-03-03-04</name>
		<Placemark>
			<name>Polygon 2</name>
			<styleUrl>#poly-000000-1200-77-nodesc</styleUrl>
			<MultiGeometry>
				<Polygon>
					<outerBoundaryIs>
						<LinearRing>
							<tessellate>1</tessellate>
							<coordinates>
								32.4561454,47.0656067,0 32.5576193,47.1640502,0 32.5112304,47.1194951,0 32.4561454,47.0656067,0 
							</coordinates>
						</LinearRing>
					</outerBoundaryIs>
				</Polygon>
				<Polygon>
					<outerBoundaryIs>
						<LinearRing>
							<tessellate>1</tessellate>
							<coordinates>
								32.7618766,47.0775955,0 32.5979969,47.26353820000001,0 32.477023,47.3832191,0 32.3950656,47.373228,0 32.3302828,47.305067,0 32.0551895,47.3941007,0 32.0345369,47.4431905,0 31.6211003,47.5244122,0 31.3986636,47.5742609,0 31.3605536,47.5384808,0 31.5906642,47.478177,0 31.8420506,47.4277103,0 31.9010015,47.3465221,0 32.0242385,47.2661418,0 32.2632269,47.18033590000001,0 32.5576193,47.1640502,0 32.5112304,47.1194951,0 32.4561454,47.0656067,0 32.1568225,46.9561344,0 32.1652369,46.9358987,0 32.1503076,46.9175382,0 32.1195441,46.9113069,0 32.0847563,46.9080609,0 32.0371749,46.8475914,0 32.0138563,46.7968596,0 32.0723163,46.766346,0 32.2658506,46.79059609999999,0 32.5310759,46.65055629999999,0 32.4750063,46.6447988,0 32.4313152,46.6300627,0 32.321649,46.5665919,0 32.2756438,46.4777689,0 32.1602873,46.4209974,0 32.0339446,46.3679573,0 31.7592864,46.3148657,0 31.8032317,46.2579246,0 31.9076018,46.2845045,0 32.0629435,46.231897,0 32.234445,46.1771568,0 32.2289519,46.13244590000001,0 32.5228362,46.0676935,0 32.7411895,46.11436100000001,0 33.1051116,46.1067445,0 33.1930022,46.16289129999999,0 33.4072356,46.0371954,0 33.4896331,46.0410086,0 33.5665373,46.13244590000001,0 33.621469,46.07150450000001,0 33.6104827,45.9608767,0 33.7423186,45.9341402,0 33.6928801,45.89209979999999,0 33.5994963,45.8806287,0 33.1710295,45.7274542,0 32.9238372,45.63918820000001,0 32.4953704,45.4314076,0 32.5063567,45.3503967,0 32.6436858,45.3117793,0 32.7370696,45.37741329999999,0 32.918344,45.3696956,0 33.0941252,45.2422016,0 33.2644133,45.1415498,0 33.3962493,45.2035104,0 33.6104827,45.04072,0 33.5994963,44.8696795,0 33.5390715,44.8385264,0 33.5280852,44.623893,0 33.3962493,44.576958,0 33.4676604,44.5025668,0 33.5940032,44.4947306,0 33.7533049,44.388839,0 34.0828948,44.4163108,0 34.2751555,44.5299851,0 34.4784026,44.7371626,0 34.9398284,44.8307355,0 35.093637,44.8151506,0 35.2858977,44.9669241,0 35.4561858,44.951376,0 35.4012541,45.07952180000001,0 35.5825286,45.1299247,0 35.8462004,45.0018919,0 36.0439543,45.0484825,0 36.2417082,45.0290744,0 36.4449553,45.087279,0 36.3955168,45.18028309999999,0 36.4284758,45.2770011,0 36.4834075,45.3696956,0 36.5767913,45.3503967,0 36.6317229,45.3967029,0 36.466928,45.4737956,0 36.3131194,45.4699435,0 36.0714202,45.4468251,0 36.0384612,45.4044169,0 35.9450774,45.37741329999999,0 35.8571868,45.4352624,0 35.664926,45.3079161,0 35.4397063,45.2422016,0 35.1870207,45.3426754,0 35.1375823,45.3117793,0 35.027719,45.3928455,0 35.0991301,45.45838549999999,0 35.0112395,45.6353474,0 34.8574309,45.7274542,0 34.6363311,45.9518068,0 34.8684172,45.94512280000001,0 34.8313384,46.1129329,0 34.8093657,46.16289129999999,0 34.8697906,46.2384562,0 35.0538115,46.2636214,0 35.2189791,46.3935886,0 35.1686995,46.5007803,0 35.1934952,46.50976059999999,0 35.267589,46.35413979999999,0 35.3223938,46.337593,0 35.3799682,46.3802748,0 35.5256901,46.4718117,0 35.6286517,46.5095129,0 35.7051541,46.5762921,0 35.8104949,46.61566560000001,0 35.914865,46.6580974,0 36.1126189,46.66281,0 36.2725024,46.6374426,0 36.405891,46.7276747,0 36.6159301,46.7786103,0 36.4357095,46.8852175,0 36.3627818,47.01656890000001,0 36.1589714,47.06989500000001,0 36.1901215,47.17612810000001,0 35.6989711,47.2305816,0 35.4989333,47.33452919999999,0 35.2802534,47.42971900000001,0 35.0022841,47.3570293,0 34.650064,47.46680349999999,0 34.4658664,47.49874479999999,0 34.1729742,47.4130228,0 34.0625252,47.3501033,0 33.8511326,47.1380033,0 33.7079863,47.008529,0 33.6997466,46.9176179,0 33.5974234,46.8208323,0 33.3674101,46.7541528,0 33.2026152,46.8227936,0 33.0164286,46.7742828,0 32.8331999,46.7612091,0 32.7655021,46.8450631,0 32.7115357,46.9757208,0 32.7618766,47.0775955,0 
							</coordinates>
						</LinearRing>
					</outerBoundaryIs>
				</Polygon>
			</MultiGeometry>
		</Placemark>
	</Folder>
</Document>
</kml>
