<?xml version="1.0" encoding="UTF-8"?>
<kml xmlns="http://www.opengis.net/kml/2.2" xmlns:gx="http://www.google.com/kml/ext/2.2" xmlns:kml="http://www.opengis.net/kml/2.2" xmlns:atom="http://www.w3.org/2005/Atom">
<Document>
	<name>2022-08-29</name>
	<StyleMap id="poly-000000-1200-77-nodesc">
		<Pair>
			<key>normal</key>
			<styleUrl>#poly-000000-1200-77-nodesc-normal</styleUrl>
		</Pair>
		<Pair>
			<key>highlight</key>
			<styleUrl>#poly-000000-1200-77-nodesc-highlight</styleUrl>
		</Pair>
	</StyleMap>
	<Style id="poly-000000-1200-77-nodesc-highlight">
		<BalloonStyle>
			<text><![CDATA[<h3>$[name]</h3>]]></text>
		</BalloonStyle>
		<LineStyle>
			<color>ff000000</color>
			<width>1.8</width>
		</LineStyle>
		<PolyStyle>
			<color>4d000000</color>
		</PolyStyle>
	</Style>
	<Style id="poly-000000-1200-77-nodesc-normal">
		<BalloonStyle>
			<text><![CDATA[<h3>$[name]</h3>]]></text>
		</BalloonStyle>
		<LineStyle>
			<color>ff000000</color>
			<width>1.2</width>
		</LineStyle>
		<PolyStyle>
			<color>4d000000</color>
		</PolyStyle>
	</Style>
	<Folder>
		<name>2022-08-29</name>
		<Placemark>
			<name>Polygon 2</name>
			<styleUrl>#poly-000000-1200-77-nodesc</styleUrl>
			<MultiGeometry>
				<Polygon>
					<outerBoundaryIs>
						<LinearRing>
							<tessellate>1</tessellate>
							<coordinates>
								32.6056331,46.9955231,0 32.6504039,47.0587657,0 32.6283597,47.0281433,0 32.6056331,46.9955231,0 
							</coordinates>
						</LinearRing>
					</outerBoundaryIs>
				</Polygon>
				<Polygon>
					<outerBoundaryIs>
						<LinearRing>
							<tessellate>1</tessellate>
							<coordinates>
								32.1540405,46.74164919999999,0 32.2160219,46.65106350000001,0 32.0769408,46.6094649,0 32.1361693,46.5561117,0 32.3216444,46.5668238,0 32.275639,46.4780008,0 31.5478108,46.56058830000001,0 31.5137936,46.55829249999999,0 31.6727637,46.4482029,0 32.0296245,46.41843860000001,0 32.0339388,46.3681891,0 31.7592794,46.31509749999999,0 31.8032249,46.2581564,0 31.9075955,46.2847363,0 32.0629378,46.23212880000001,0 32.2344401,46.1773887,0 32.228947,46.13267780000001,0 32.5228325,46.06792540000001,0 32.7411867,46.1145929,0 33.1051104,46.1069764,0 33.1930013,46.16312319999999,0 33.4072356,46.0374273,0 33.4896335,46.0412405,0 33.566538,46.13267780000001,0 33.6214699,46.0717364,0 33.6104836,45.9611086,0 33.74232,45.9343721,0 33.6928813,45.89233169999999,0 33.5994971,45.88086060000001,0 33.1710285,45.7276861,0 32.9238352,45.63942010000001,0 32.4953667,45.4316395,0 32.506353,45.3506286,0 32.6436827,45.3120112,0 32.7370669,45.3776452,0 32.918342,45.3699275,0 33.0941239,45.24243349999999,0 33.2644127,45.1417817,0 33.3962493,45.2037423,0 33.6104835,45.0409519,0 33.5994971,44.8699114,0 33.5390721,44.8387583,0 33.5280857,44.6241249,0 33.3962493,44.5771899,0 33.4676607,44.5027987,0 33.594004,44.4949625,0 33.7533063,44.3890709,0 34.0828975,44.4165427,0 34.275159,44.530217,0 34.4784069,44.7373945,0 34.9398346,44.8309673,0 35.0936438,44.8153824,0 35.2859053,44.9671559,0 35.4561941,44.9516078,0 35.4012622,45.0797536,0 35.5825375,45.13015639999999,0 35.8462103,45.0021236,0 36.043965,45.04871419999999,0 36.2417197,45.029306,0 36.4449677,45.0875106,0 36.395529,45.1805147,0 36.4284882,45.27723269999999,0 36.4834201,45.3699272,0 36.5768043,45.3506282,0 36.6317362,45.3969344,0 36.4669406,45.4740272,0 36.3131314,45.4701751,0 36.0714312,45.44705679999999,0 36.038472,45.40464859999999,0 35.9450878,45.377645,0 35.8571969,45.4354941,0 35.6649353,45.3081478,0 35.4397146,45.2424334,0 35.187028,45.34290719999999,0 35.1375894,45.31201109999999,0 35.0277257,45.39307729999999,0 35.0991371,45.4586173,0 35.0112462,45.6355792,0 34.8574369,45.727686,0 34.6363363,45.95203859999999,0 34.8684233,45.9453546,0 34.8313444,46.1131647,0 34.8093716,46.1631231,0 34.8697968,46.23868800000001,0 35.0538185,46.2638532,0 35.2189868,46.39382040000001,0 35.168707,46.50101209999999,0 35.1935028,46.5099924,0 35.2675969,46.3543716,0 35.3224019,46.33782480000001,0 35.3799766,46.3805066,0 35.5256992,46.4720434,0 35.6286612,46.5097446,0 35.705164,46.5765238,0 35.8105052,46.6158973,0 35.9148758,46.6583291,0 36.1126305,46.6630416,0 36.2725147,46.6376742,0 36.4059039,46.7279063,0 37.8162002,47.09577649999999,0 38.2120535,47.0860252,0 38.376413,47.63550040000001,0 38.6543035,47.6395382,0 38.8357691,47.8661095,0 39.7500999,47.8275809,0 39.8854823,48.0544254,0 40.0127813,48.2470685,0 39.8676446,48.48009950000001,0 39.7101944,48.7378859,0 39.8130861,48.8443588,0 39.6896156,49.0560909,0 40.2138648,49.2654771,0 39.9803623,49.5693239,0 39.1733995,49.8847499,0 38.5513356,50.0243192,0 38.237574,50.0097209,0 38.0594324,49.91464420000001,0 37.7526622,50.0984609,0 37.4459116,50.4392229,0 37.1685874,50.3565352,0 36.8140512,50.3131021,0 36.3912936,50.2778219,0 36.0886468,50.40976820000001,0 36.1822379,50.23563669999999,0 36.4440533,50.08579289999999,0 37.4673844,50.0301191,0 37.9856493,49.5958654,0 38.3678941,48.9495264,0 37.5130432,48.0239317,0 37.3161567,47.6285104,0 35.2970679,47.48439150000001,0 35.09212,47.45502840000001,0 34.9487326,47.3767939,0 34.6404565,47.53476250000001,0 34.4658711,47.49897669999999,0 34.1729776,47.4132547,0 34.0625281,47.3503352,0 33.8511346,47.1382352,0 33.7079876,47.00876090000001,0 33.6997479,46.9178498,0 33.5974242,46.8210642,0 33.5377374,46.9002491,0 33.9694843,47.3076251,0 33.9525581,47.43218070000001,0 33.8705967,47.4316594,0 33.638984,47.42420690000001,0 33.5726313,47.5090862,0 33.4571813,47.48219349999999,0 33.3832277,47.4402616,0 33.3464781,47.3588475,0 33.3032775,47.3711913,0 33.2861546,47.3430588,0 33.3017969,47.3202602,0 33.2638778,47.2858103,0 33.2313807,47.2901559,0 33.2078144,47.27772659999999,0 33.184058,47.24563820000001,0 33.1400405,47.2378915,0 33.1668276,47.201762,0 33.0648016,47.1612343,0 33.0057307,47.1853282,0 33.0005297,47.1353442,0 32.9673833,47.1142849,0 32.8884064,47.08556039999999,0 32.7791656,47.0963269,0 32.6504039,47.0587657,0 32.6056331,46.9955231,0 32.4518584,46.96571180000001,0 32.3594145,46.8526174,0 32.3147821,46.7816638,0 32.1540405,46.74164919999999,0 
							</coordinates>
						</LinearRing>
					</outerBoundaryIs>
				</Polygon>
			</MultiGeometry>
		</Placemark>
	</Folder>
</Document>
</kml>
