<?xml version="1.0" encoding="UTF-8"?>
<kml xmlns="http://www.opengis.net/kml/2.2" xmlns:gx="http://www.google.com/kml/ext/2.2" xmlns:kml="http://www.opengis.net/kml/2.2" xmlns:atom="http://www.w3.org/2005/Atom">
<Document>
	<name>2022-03-21-29</name>
	<StyleMap id="poly-000000-1200-77-nodesc">
		<Pair>
			<key>normal</key>
			<styleUrl>#poly-000000-1200-77-nodesc-normal</styleUrl>
		</Pair>
		<Pair>
			<key>highlight</key>
			<styleUrl>#poly-000000-1200-77-nodesc-highlight</styleUrl>
		</Pair>
	</StyleMap>
	<Style id="poly-000000-1200-77-nodesc-highlight">
		<BalloonStyle>
			<text><![CDATA[<h3>$[name]</h3>]]></text>
		</BalloonStyle>
		<LineStyle>
			<color>ff000000</color>
			<width>1.8</width>
		</LineStyle>
		<PolyStyle>
			<color>4d000000</color>
		</PolyStyle>
	</Style>
	<Style id="poly-000000-1200-77-nodesc-normal">
		<BalloonStyle>
			<text><![CDATA[<h3>$[name]</h3>]]></text>
		</BalloonStyle>
		<LineStyle>
			<color>ff000000</color>
			<width>1.2</width>
		</LineStyle>
		<PolyStyle>
			<color>4d000000</color>
		</PolyStyle>
	</Style>
	<Folder>
		<name>2022-03-21-29</name>
		<Placemark>
			<name>Polygon 2</name>
			<styleUrl>#poly-000000-1200-77-nodesc</styleUrl>
			<MultiGeometry>
				<Polygon>
					<outerBoundaryIs>
						<LinearRing>
							<tessellate>1</tessellate>
							<coordinates>
								32.6092801,47.2705383,0 32.5305741,47.0733444,0 32.4506544,47.1637777,0 32.3001431,47.1127921,0 32.2385214,47.2002632,0 32.3623933,47.28212730000001,0 32.6092801,47.2705383,0 
							</coordinates>
						</LinearRing>
					</outerBoundaryIs>
				</Polygon>
				<Polygon>
					<outerBoundaryIs>
						<LinearRing>
							<tessellate>1</tessellate>
							<coordinates>
								32.3572633,46.976899,0 32.3060337,46.78877330000001,0 32.1837808,46.736836,0 32.3648407,46.7021085,0 32.3216444,46.5668238,0 32.275639,46.4780008,0 32.160282,46.4212292,0 32.0339388,46.3681891,0 31.7592794,46.31509749999999,0 31.8032249,46.2581564,0 31.9075955,46.2847363,0 32.0629378,46.23212880000001,0 32.2344401,46.1773887,0 32.228947,46.13267780000001,0 32.5228325,46.06792540000001,0 32.7411867,46.1145929,0 33.1051104,46.1069764,0 33.1930013,46.16312319999999,0 33.4072356,46.0374273,0 33.4896335,46.0412405,0 33.566538,46.13267780000001,0 33.6214699,46.0717364,0 33.6104836,45.9611086,0 33.74232,45.9343721,0 33.6928813,45.89233169999999,0 33.5994971,45.88086060000001,0 33.1710285,45.7276861,0 32.9238352,45.63942010000001,0 32.4953667,45.4316395,0 32.506353,45.3506286,0 32.6436827,45.3120112,0 32.7370669,45.3776452,0 32.918342,45.3699275,0 33.0941239,45.24243349999999,0 33.2644127,45.1417817,0 33.3962493,45.2037423,0 33.6104835,45.0409519,0 33.5994971,44.8699114,0 33.5390721,44.8387583,0 33.5280857,44.6241249,0 33.3962493,44.5771899,0 33.4676607,44.5027987,0 33.594004,44.4949625,0 33.7533063,44.3890709,0 34.0828975,44.4165427,0 34.275159,44.530217,0 34.4784069,44.7373945,0 34.9398346,44.8309673,0 35.0936438,44.8153824,0 35.2859053,44.9671559,0 35.4561941,44.9516078,0 35.4012622,45.0797536,0 35.5825375,45.13015639999999,0 35.8462103,45.0021236,0 36.043965,45.04871419999999,0 36.2417197,45.029306,0 36.4449677,45.0875106,0 36.395529,45.1805147,0 36.4284882,45.27723269999999,0 36.4834201,45.3699272,0 36.5768043,45.3506282,0 36.6317362,45.3969344,0 36.4669406,45.4740272,0 36.3131314,45.4701751,0 36.0714312,45.44705679999999,0 36.038472,45.40464859999999,0 35.9450878,45.377645,0 35.8571969,45.4354941,0 35.6649353,45.3081478,0 35.4397146,45.2424334,0 35.187028,45.34290719999999,0 35.1375894,45.31201109999999,0 35.0277257,45.39307729999999,0 35.0991371,45.4586173,0 35.0112462,45.6355792,0 34.8574369,45.727686,0 34.6363363,45.95203859999999,0 34.8684233,45.9453546,0 34.8313444,46.1131647,0 34.8093716,46.1631231,0 34.8697968,46.23868800000001,0 35.0538185,46.2638532,0 35.2189868,46.39382040000001,0 35.168707,46.50101209999999,0 35.1935028,46.5099924,0 35.2675969,46.3543716,0 35.3224019,46.33782480000001,0 35.3799766,46.3805066,0 35.5256992,46.4720434,0 35.6286612,46.5097446,0 35.705164,46.5765238,0 35.8105052,46.6158973,0 35.9148758,46.6583291,0 36.1126305,46.6630416,0 36.2725147,46.6376742,0 36.4059039,46.7279063,0 36.6159439,46.7788418,0 36.4357226,46.88544910000001,0 36.3627947,47.0168005,0 36.1589834,47.0701266,0 36.1901337,47.1763597,0 35.6989812,47.23081329999999,0 35.2970679,47.48439150000001,0 35.09212,47.45502840000001,0 34.9487326,47.3767939,0 34.6404565,47.53476250000001,0 34.4658711,47.49897669999999,0 34.1729776,47.4132547,0 34.0625281,47.3503352,0 33.8511346,47.1382352,0 33.7079876,47.00876090000001,0 33.6997479,46.9178498,0 33.5974242,46.8210642,0 33.5377374,46.9002491,0 33.9694843,47.3076251,0 33.9525581,47.43218070000001,0 33.8705967,47.4316594,0 33.8696969,47.3158531,0 33.568344,47.02284940000001,0 33.4120421,46.873275,0 33.2979303,47.08762620000001,0 33.2257894,47.209236,0 33.2262537,47.3532221,0 33.4356311,47.42686560000001,0 33.3947762,47.4561567,0 33.5555293,47.4864304,0 33.5750803,47.5637504,0 33.5301769,47.56349010000001,0 33.5116895,47.50270669999999,0 33.3714363,47.47548749999999,0 33.2969147,47.54439469999999,0 33.2409614,47.5271702,0 33.3298402,47.4273575,0 33.2782252,47.4063456,0 33.2470756,47.4131309,0 33.2234345,47.4919071,0 33.2003591,47.4894628,0 33.2216133,47.4126782,0 33.2054396,47.3888644,0 33.1507865,47.361342,0 33.1414524,47.20953899999999,0 32.9335125,47.1211112,0 32.9690369,47.0875047,0 33.1818516,47.1584554,0 33.2392186,47.06852370000001,0 33.3056116,46.8418159,0 33.0164269,46.7745147,0 32.8331975,46.76144099999999,0 32.7654994,46.84529500000001,0 32.7115327,46.9759527,0 32.3572633,46.976899,0 
							</coordinates>
						</LinearRing>
					</outerBoundaryIs>
				</Polygon>
			</MultiGeometry>
		</Placemark>
	</Folder>
</Document>
</kml>
