<?xml version="1.0" encoding="UTF-8"?>
<kml xmlns="http://www.opengis.net/kml/2.2" xmlns:gx="http://www.google.com/kml/ext/2.2" xmlns:kml="http://www.opengis.net/kml/2.2" xmlns:atom="http://www.w3.org/2005/Atom">
<Document>
	<name>2022-02-26.kml</name>
	<StyleMap id="poly-000000-1200-77-nodesc">
		<Pair>
			<key>normal</key>
			<styleUrl>#poly-000000-1200-77-nodesc-normal</styleUrl>
		</Pair>
		<Pair>
			<key>highlight</key>
			<styleUrl>#poly-000000-1200-77-nodesc-highlight</styleUrl>
		</Pair>
	</StyleMap>
	<Style id="poly-000000-1200-77-nodesc-highlight">
		<BalloonStyle>
			<text><![CDATA[<h3>$[name]</h3>]]></text>
		</BalloonStyle>
		<LineStyle>
			<color>ff000000</color>
			<width>1.8</width>
		</LineStyle>
		<PolyStyle>
			<color>4d000000</color>
		</PolyStyle>
	</Style>
	<Style id="poly-000000-1200-77-nodesc-normal">
		<BalloonStyle>
			<text><![CDATA[<h3>$[name]</h3>]]></text>
		</BalloonStyle>
		<LineStyle>
			<color>ff000000</color>
			<width>1.2</width>
		</LineStyle>
		<PolyStyle>
			<color>4d000000</color>
		</PolyStyle>
	</Style>
	<Placemark>
		<name>Polygon 2</name>
		<styleUrl>#poly-000000-1200-77-nodesc</styleUrl>
		<Polygon>
			<outerBoundaryIs>
				<LinearRing>
					<tessellate>1</tessellate>
					<coordinates>
						35.857101,45.4352624,0 35.6648402,45.3079161,0 35.4396205,45.2422016,0 35.1869349,45.3426754,0 35.1374965,45.3117793,0 35.0276332,45.3928455,0 35.0990443,45.45838549999999,0 35.0111537,45.6353474,0 34.8573451,45.7274542,0 34.6362453,45.9518068,0 34.8683314,45.94512280000001,0 34.8312526,46.1129329,0 34.8092799,46.16289129999999,0 34.8697048,46.2384562,0 35.0537257,46.2636214,0 35.2188933,46.3935886,0 35.1686137,46.5007803,0 35.1934094,46.50976059999999,0 35.2675032,46.35413979999999,0 35.322308,46.337593,0 35.3798824,46.3802748,0 35.5256043,46.4718117,0 35.6285659,46.5095129,0 35.7050683,46.5762921,0 35.8104091,46.61566560000001,0 35.9147792,46.6580974,0 36.1125331,46.66281,0 36.2724166,46.6374426,0 36.4058052,46.7276747,0 36.5959316,46.7819018,0 36.4356237,46.8852175,0 36.362696,47.01656890000001,0 36.1588856,47.06989500000001,0 36.1975888,47.1700601,0 35.7064384,47.2371089,0 35.4037638,47.3488319,0 34.9733592,47.3272511,0 34.5813136,47.4185062,0 34.4657806,47.49874479999999,0 34.1728884,47.4130228,0 34.0624394,47.3501033,0 33.8510468,47.1380033,0 33.7079005,47.008529,0 33.6996608,46.9176179,0 33.5973376,46.8208323,0 33.3673243,46.7541528,0 33.2025294,46.8227936,0 32.8825526,46.7400378,0 32.7053981,46.8105763,0 32.5655582,46.77635300000001,0 32.4931437,46.7260319,0 32.2514938,46.8663078,0 32.2341675,46.8493707,0 32.2007136,46.8472198,0 32.478805,46.6722338,0 32.6600795,46.7381555,0 32.8083949,46.67788740000001,0 32.6216273,46.6024578,0 32.275558,46.4777689,0 32.1602015,46.4209974,0 32.0338588,46.3679573,0 31.7592006,46.3148657,0 31.8031459,46.2579246,0 31.907516,46.2845045,0 32.0628577,46.231897,0 32.2343592,46.1771568,0 32.2288661,46.13244590000001,0 32.5227504,46.0676935,0 32.7411037,46.11436100000001,0 33.1050258,46.1067445,0 33.1929164,46.16289129999999,0 33.4071498,46.0371954,0 33.4895473,46.0410086,0 33.5664515,46.13244590000001,0 33.6213832,46.07150450000001,0 33.6103969,45.9608767,0 33.7422328,45.9341402,0 33.6927943,45.89209979999999,0 33.5994105,45.8806287,0 33.1709437,45.7274542,0 32.9237514,45.63918820000001,0 32.4952846,45.4314076,0 32.5062709,45.3503967,0 32.6436,45.3117793,0 32.7369838,45.37741329999999,0 32.9182582,45.3696956,0 33.0940394,45.2422016,0 33.2643275,45.1415498,0 33.3961635,45.2035104,0 33.6103969,45.04072,0 33.5994105,44.8696795,0 33.5389857,44.8385264,0 33.5279994,44.623893,0 33.3961635,44.576958,0 33.4675746,44.5025668,0 33.5939174,44.4947306,0 33.7532191,44.388839,0 34.082809,44.4163108,0 34.2750697,44.5299851,0 34.4783168,44.7371626,0 34.9397426,44.8307355,0 35.0935512,44.8151506,0 35.2858119,44.9669241,0 35.4561,44.951376,0 35.4011683,45.07952180000001,0 35.5824428,45.1299247,0 35.8461146,45.0018919,0 36.0438685,45.0484825,0 36.2416224,45.0290744,0 36.4448695,45.087279,0 36.395431,45.18028309999999,0 36.42839,45.2770011,0 36.4833217,45.3696956,0 36.5767055,45.3503967,0 36.6316371,45.3967029,0 36.4668422,45.4737956,0 36.3130336,45.4699435,0 36.0713344,45.4468251,0 36.0383754,45.4044169,0 35.9449916,45.37741329999999,0 35.857101,45.4352624,0 
					</coordinates>
				</LinearRing>
			</outerBoundaryIs>
		</Polygon>
	</Placemark>
</Document>
</kml>
